OBJECT_NAME,OBJECT_ID,EPOCH,MEAN_MOTION,ECCENTRICITY,INCLINATION,RA_OF_ASC_NODE,ARG_OF_PERICENTER,MEAN_ANOMALY,EPHEMERIS_TYPE,CLASSIFICATION_TYPE,NORAD_CAT_ID,ELEMENT_SET_NO,REV_AT_EPOCH,BSTAR,MEAN_MOTION_DOT,MEAN_MOTION_DDOT
ONEWEB-0410,2022-012A,2026-07-21T03:51:27.935136,13.17647364,.00013575,87.9165,359.1025,48.6953,311.4295,0,U,51622,999,21817,-.13930493E-3,-.41E-6,0
ONEWEB-0411,2022-012B,2026-07-21T01:39:02.382912,13.10372432,.00023623,87.8821,29.5161,94.0138,266.1259,0,U,51623,999,21372,-.22696902E-3,-.67E-6,0
ONEWEB-0415,2022-012C,2026-07-21T05:14:04.214976,13.10370154,.0002117,87.8818,29.4836,85.2907,274.8462,0,U,51624,999,21374,.81317301E-3,.297E-5,0
ONEWEB-0416,2022-012D,2026-07-21T05:31:09.566976,13.10372620,.00021202,87.8811,29.4977,82.7961,277.3407,0,U,51625,999,21378,-.96994134E-3,-.326E-5,0
ONEWEB-0422,2022-012E,2026-07-21T04:06:02.996064,13.17647162,.00020553,87.9158,359.1006,112.2617,247.8733,0,U,51626,999,21828,-.17231348E-3,-.54E-6,0
ONEWEB-0423,2022-012F,2026-07-21T03:56:20.009472,13.17648927,.00017592,87.9153,359.1053,93.3398,266.7934,0,U,51627,999,21817,.43129887E-4,.3E-6,0
ONEWEB-0425,2022-012G,2026-07-21T02:05:57.653376,13.10324235,.00019048,87.8854,29.5130,81.7235,278.4108,0,U,51628,999,21376,.25254248E-1,.8831E-4,0
ONEWEB-0428,2022-012H,2026-07-21T01:36:35.419968,13.10372286,.00018135,87.8811,29.5210,89.5782,270.5553,0,U,51629,999,21372,.38461663E-4,.26E-6,0
ONEWEB-0431,2022-012J,2026-07-21T06:22:16.583808,13.10375617,.00024193,87.8824,29.4746,93.8876,266.2528,0,U,51630,999,21380,.69608226E-3,.256E-5,0
ONEWEB-0434,2022-012K,2026-07-21T02:11:00.009312,13.10375334,.0001354,87.8824,29.5357,72.1185,288.0090,0,U,51631,999,21376,-.16080687E-2,-.549E-5,0
ONEWEB-0435,2022-012L,2026-07-21T00:30:36.297216,13.10376072,.00019484,87.8818,29.5334,98.0972,262.0376,0,U,51632,999,21374,-.21666557E-2,-.744E-5,0
ONEWEB-0436,2022-012M,2026-07-20T22:16:08.356800,13.17647872,.0001953,87.9160,359.1362,99.7356,260.3996,0,U,51633,999,21812,-.10747403E-3,-.29E-6,0
ONEWEB-0438,2022-012N,2026-07-21T01:58:33.880512,13.10371151,.00017545,87.8812,29.5252,82.3472,277.7854,0,U,51634,999,21378,-.1691473E-2,-.578E-5,0
ONEWEB-0439,2022-012P,2026-07-21T05:43:22.083456,13.10372381,.000173,87.8817,29.4813,88.1421,271.9904,0,U,51635,999,21378,-.23082532E-2,-.793E-5,0
ONEWEB-0442,2022-012Q,2026-07-21T03:33:14.575104,13.17651234,.00015497,87.9153,359.1222,76.7165,283.4139,0,U,51636,999,21814,.56739986E-4,.35E-6,0
ONEWEB-0443,2022-012R,2026-07-21T04:01:11.422848,13.17647755,.00015707,87.9152,359.1195,101.4620,258.6688,0,U,51637,999,21819,-.78490737E-4,-.18E-6,0
ONEWEB-0444,2022-012S,2026-07-21T01:48:48.174048,13.10369553,.00016685,87.8817,29.5124,92.1757,267.9561,0,U,51638,999,21377,-.10598592E-2,-.357E-5,0
ONEWEB-0445,2022-012T,2026-07-21T00:28:09.025824,13.10374221,.00019135,87.8824,29.5144,85.8521,274.2826,0,U,51639,999,21377,-.13743722E-2,-.467E-5,0
ONEWEB-0446,2022-012U,2026-07-21T05:26:16.111968,13.10369350,.00020439,87.8814,29.4997,81.6108,278.5251,0,U,51640,999,21378,-.48877573E-3,-.158E-5,0
ONEWEB-0448,2022-012V,2026-07-21T01:53:40.962912,13.10370191,.00017827,87.8813,29.5243,89.4120,270.7211,0,U,51641,999,21373,-.1378324E-2,-.468E-5,0
ONEWEB-0449,2022-012W,2026-07-21T05:40:55.142976,13.10371328,.0001678,87.8819,29.4803,69.0677,291.0630,0,U,51642,999,21376,-.17693884E-2,-.605E-5,0
ONEWEB-0451,2022-012X,2026-07-21T03:39:18.622368,13.17647665,.00016751,87.9164,359.0901,90.3626,269.7698,0,U,51643,999,21813,.30545814E-4,.25E-6,0
ONEWEB-0452,2022-012Y,2026-07-20T23:58:11.928288,13.17647685,.00015435,87.9151,359.1539,96.0032,264.1275,0,U,51644,999,21812,.14820893E-4,.19E-6,0
ONEWEB-0456,2022-012AA,2026-07-21T00:23:15.647712,13.10373094,.0001807,87.8832,29.5140,93.8923,266.2411,0,U,51646,999,21377,-.16429985E-2,-.561E-5,0
ONEWEB-0457,2022-012AB,2026-07-21T01:41:16.986336,13.10369333,.00020097,87.8815,29.5183,78.8323,281.3030,0,U,51647,999,21378,-.23128558E-3,-.68E-6,0
ONEWEB-0458,2022-012AC,2026-07-21T05:51:55.055808,13.10373920,.00016168,87.8820,29.4718,90.1021,270.0292,0,U,51648,999,21376,-.19298211E-2,-.661E-5,0
ONEWEB-0461,2022-012AD,2026-07-21T04:08:28.795200,13.17647503,.00019182,87.9162,359.0996,90.8100,269.3252,0,U,51649,999,21836,-.85085056E-4,-.2E-6,0
ONEWEB-0463,2022-012AE,2026-07-21T03:41:44.842272,13.17647706,.00019708,87.9152,359.1224,90.0424,270.0933,0,U,51650,999,21814,-.3712984E-4,-.2E-7,0
ONEWEB-0464,2022-012AF,2026-07-21T02:08:21.073056,13.10373516,.00016305,87.8815,29.5237,97.1283,263.0030,0,U,51651,999,21376,-.1674867E-2,-.572E-5,0
ONEWEB-0468,2022-012AG,2026-07-21T05:55:34.423680,13.10373414,.00017264,87.8813,29.4856,96.4486,263.6838,0,U,51652,999,21376,-.17732128E-2,-.606E-5,0
