ONEWEB-0410             
1 51622U 22012A   26202.16073999 -.00000041  00000+0 -13930-3 0  9994
2 51622  87.9165 359.1025 0001357  48.6953 311.4295 13.17647364218176
ONEWEB-0411             
1 51623U 22012B   26202.06877758 -.00000067  00000+0 -22697-3 0  9997
2 51623  87.8821  29.5161 0002362  94.0138 266.1259 13.10372432213727
ONEWEB-0415             
1 51624U 22012C   26202.21810434  .00000297  00000+0  81317-3 0  9990
2 51624  87.8818  29.4836 0002117  85.2907 274.8462 13.10370154213749
ONEWEB-0416             
1 51625U 22012D   26202.22997184 -.00000326  00000+0 -96994-3 0  9992
2 51625  87.8811  29.4977 0002120  82.7961 277.3407 13.10372620213786
ONEWEB-0422             
1 51626U 22012E   26202.17086801 -.00000054  00000+0 -17231-3 0  9997
2 51626  87.9158 359.1006 0002055 112.2617 247.8733 13.17647162218289
ONEWEB-0423             
1 51627U 22012F   26202.16412048  .00000030  00000+0  43130-4 0  9993
2 51627  87.9153 359.1053 0001759  93.3398 266.7934 13.17648927218173
ONEWEB-0425             
1 51628U 22012G   26202.08747284  .00008831  00000+0  25254-1 0  9999
2 51628  87.8854  29.5130 0001904  81.7235 278.4108 13.10324235213767
ONEWEB-0428             
1 51629U 22012H   26202.06707662  .00000026  00000+0  38462-4 0  9990
2 51629  87.8811  29.5210 0001813  89.5782 270.5553 13.10372286213724
ONEWEB-0431             
1 51630U 22012J   26202.26546972  .00000256  00000+0  69608-3 0  9999
2 51630  87.8824  29.4746 0002419  93.8876 266.2528 13.10375617213802
ONEWEB-0434             
1 51631U 22012K   26202.09097233 -.00000549  00000+0 -16081-2 0  9995
2 51631  87.8824  29.5357 0001354  72.1185 288.0090 13.10375334213769
ONEWEB-0435             
1 51632U 22012L   26202.02125344 -.00000744  00000+0 -21667-2 0  9997
2 51632  87.8818  29.5334 0001948  98.0972 262.0376 13.10376072213745
ONEWEB-0436             
1 51633U 22012M   26201.92787450 -.00000029  00000+0 -10747-3 0  9992
2 51633  87.9160 359.1362 0001953  99.7356 260.3996 13.17647872218122
ONEWEB-0438             
1 51634U 22012N   26202.08233658 -.00000578  00000+0 -16915-2 0  9998
2 51634  87.8812  29.5252 0001754  82.3472 277.7854 13.10371151213787
ONEWEB-0439             
1 51635U 22012P   26202.23845004 -.00000793  00000+0 -23083-2 0  9993
2 51635  87.8817  29.4813 0001730  88.1421 271.9904 13.10372381213785
ONEWEB-0442             
1 51636U 22012Q   26202.14808536  .00000035  00000+0  56740-4 0  9998
2 51636  87.9153 359.1222 0001549  76.7165 283.4139 13.17651234218140
ONEWEB-0443             
1 51637U 22012R   26202.16749332 -.00000018  00000+0 -78491-4 0  9999
2 51637  87.9152 359.1195 0001570 101.4620 258.6688 13.17647755218196
ONEWEB-0444             
1 51638U 22012S   26202.07555757 -.00000357  00000+0 -10599-2 0  9995
2 51638  87.8817  29.5124 0001668  92.1757 267.9561 13.10369553213771
ONEWEB-0445             
1 51639U 22012T   26202.01954891 -.00000467  00000+0 -13744-2 0  9999
2 51639  87.8824  29.5144 0001913  85.8521 274.2826 13.10374221213776
ONEWEB-0446             
1 51640U 22012U   26202.22657537 -.00000158  00000+0 -48878-3 0  9995
2 51640  87.8814  29.4997 0002043  81.6108 278.5251 13.10369350213789
ONEWEB-0448             
1 51641U 22012V   26202.07894633 -.00000468  00000+0 -13783-2 0  9999
2 51641  87.8813  29.5243 0001782  89.4120 270.7211 13.10370191213733
ONEWEB-0449             
1 51642U 22012W   26202.23674934 -.00000605  00000+0 -17694-2 0  9996
2 51642  87.8819  29.4803 0001678  69.0677 291.0630 13.10371328213763
ONEWEB-0451             
1 51643U 22012X   26202.15229887  .00000025  00000+0  30546-4 0  9998
2 51643  87.9164 359.0901 0001675  90.3626 269.7698 13.17647665218136
ONEWEB-0452             
1 51644U 22012Y   26201.99874917  .00000019  00000+0  14821-4 0  9991
2 51644  87.9151 359.1539 0001543  96.0032 264.1275 13.17647685218120
ONEWEB-0456             
1 51646U 22012AA  26202.01615333 -.00000561  00000+0 -16430-2 0  9992
2 51646  87.8832  29.5140 0001807  93.8923 266.2411 13.10373094213774
ONEWEB-0457             
1 51647U 22012AB  26202.07033549 -.00000068  00000+0 -23129-3 0  9998
2 51647  87.8815  29.5183 0002009  78.8323 281.3030 13.10369333213782
ONEWEB-0458             
1 51648U 22012AC  26202.24438722 -.00000661  00000+0 -19298-2 0  9990
2 51648  87.8820  29.4718 0001616  90.1021 270.0292 13.10373920213767
ONEWEB-0461             
1 51649U 22012AD  26202.17255550 -.00000020  00000+0 -85085-4 0  9997
2 51649  87.9162 359.0996 0001918  90.8100 269.3252 13.17647503218364
ONEWEB-0463             
1 51650U 22012AE  26202.15399123 -.00000002  00000+0 -37130-4 0  9990
2 51650  87.9152 359.1224 0001970  90.0424 270.0933 13.17647706218145
ONEWEB-0464             
1 51651U 22012AF  26202.08913279 -.00000572  00000+0 -16749-2 0  9990
2 51651  87.8815  29.5237 0001630  97.1283 263.0030 13.10373516213768
ONEWEB-0468             
1 51652U 22012AG  26202.24692620 -.00000606  00000+0 -17732-2 0  9994
2 51652  87.8813  29.4856 0001726  96.4486 263.6838 13.10373414213765
